{"type": "FeatureCollection", "features": [ {"type": "Feature", "properties": {"norad_id": 33674, "name": "FENGYUN 1C DEB", "group": "fengyun-1c-debris", "lat": 68.16775014196, "lon": -115.93280031676275, "alt_km": 1030.597762548905, "timestamp": "2025-12-18T10:51:26.094596+00:00", "meta": {"OBJECT_NAME": "FENGYUN 1C DEB", "OBJECT_ID": "1999-025DFK", "EPOCH": "2025-12-16T02:29:49.222752", "MEAN_MOTION": 13.76903251, "ECCENTRICITY": 0.02115603, "INCLINATION": 98.6065, "RA_OF_ASC_NODE": 39.7288, "ARG_OF_PERICENTER": 231.1714, "MEAN_ANOMALY": 127.0386, "EPHEMERIS_TYPE": 0, "CLASSIFICATION_TYPE": "U", "NORAD_CAT_ID": 33674, "ELEMENT_SET_NO": 999, "REV_AT_EPOCH": 88411, "BSTAR": 0.0016598596, "MEAN_MOTION_DOT": 1.89e-05, "MEAN_MOTION_DDOT": 0}, "tle": {"line1": "1 33674U 99025DFK 25350.10404193  .00001890  00000+0  16599-2 0  9994", "line2": "2 33674  98.6065  39.7288 0211560 231.1714 127.0386 13.76903251884116"}}, "geometry": {"type": "Point", "coordinates": [-115.93280031676275, 68.16775014196]}}, {"type": "Feature", "properties": {"norad_id": 33676, "name": "FENGYUN 1C DEB", "group": "fengyun-1c-debris", "lat": -27.00800211867566, "lon": -167.42729150732106, "alt_km": 910.396294135071, "timestamp": "2025-12-18T10:51:26.094607+00:00", "meta": {"OBJECT_NAME": "FENGYUN 1C DEB", "OBJECT_ID": "1999-025DFM", "EPOCH": "2025-12-16T19:26:06.642240", "MEAN_MOTION": 14.35566094, "ECCENTRICITY": 0.02049762, "INCLINATION": 99.0958, "RA_OF_ASC_NODE": 15.5241, "ARG_OF_PERICENTER": 57.7777, "MEAN_ANOMALY": 304.3097, "EPHEMERIS_TYPE": 0, "CLASSIFICATION_TYPE": "U", "NORAD_CAT_ID": 33676, "ELEMENT_SET_NO": 999, "REV_AT_EPOCH": 65369, "BSTAR": 0.00012239616, "MEAN_MOTION_DOT": 3.92e-06, "MEAN_MOTION_DDOT": 0}, "tle": {"line1": "1 33676U 99025DFM 25350.80979910  .00000392  00000+0  12240-3 0  9993", "line2": "2 33676  99.0958  15.5241 0204976  57.7777 304.3097 14.35566094653691"}}, "geometry": {"type": "Point", "coordinates": [-167.42729150732106, -27.00800211867566]}}, {"type": "Feature", "properties": {"norad_id": 33678, "name": "FENGYUN 1C DEB", "group": "fengyun-1c-debris", "lat": 33.07358311695237, "lon": 52.40225115377563, "alt_km": 877.2183641590864, "timestamp": "2025-12-18T10:51:26.094617+00:00", "meta": {"OBJECT_NAME": "FENGYUN 1C DEB", "OBJECT_ID": "1999-025DFP", "EPOCH": "2025-12-16T22:11:44.071296", "MEAN_MOTION": 14.47371153, "ECCENTRICITY": 0.02051138, "INCLINATION": 99.044, "RA_OF_ASC_NODE": 56.7232, "ARG_OF_PERICENTER": 224.2171, "MEAN_ANOMALY": 134.2471, "EPHEMERIS_TYPE": 0, "CLASSIFICATION_TYPE": "U", "NORAD_CAT_ID": 33678, "ELEMENT_SET_NO": 999, "REV_AT_EPOCH": 95156, "BSTAR": 0.00059780578, "MEAN_MOTION_DOT": 2.792e-05, "MEAN_MOTION_DDOT": 0}, "tle": {"line1": "1 33678U 99025DFP 25350.92481564  .00002792  00000+0  59781-3 0  9998", "line2": "2 33678  99.0440  56.7232 0205113 224.2171 134.2471 14.47371153951565"}}, "geometry": {"type": "Point", "coordinates": [52.40225115377563, 33.07358311695237]}}, {"type": "Feature", "properties": {"norad_id": 33679, "name": "FENGYUN 1C DEB", "group": "fengyun-1c-debris", "lat": -24.004340661679397, "lon": 64.4749627696847, "alt_km": 503.0425299411172, "timestamp": "2025-12-18T10:51:26.094626+00:00", "meta": {"OBJECT_NAME": "FENGYUN 1C DEB", "OBJECT_ID": "1999-025DFQ", "EPOCH": "2025-12-17T15:47:20.511456", "MEAN_MOTION": 15.02827292, "ECCENTRICITY": 0.0148022, "INCLINATION": 99.3536, "RA_OF_ASC_NODE": 59.3074, "ARG_OF_PERICENTER": 283.8012, "MEAN_ANOMALY": 74.6773, "EPHEMERIS_TYPE": 0, "CLASSIFICATION_TYPE": "U", "NORAD_CAT_ID": 33679, "ELEMENT_SET_NO": 999, "REV_AT_EPOCH": 94197, "BSTAR": 0.0011186757, "MEAN_MOTION_DOT": 0.00018985, "MEAN_MOTION_DDOT": 0}, "tle": {"line1": "1 33679U 99025DFQ 25351.65787629  .00018985  00000+0  11187-2 0  9999", "line2": "2 33679  99.3536  59.3074 0148022 283.8012  74.6773 15.02827292941976"}}, "geometry": {"type": "Point", "coordinates": [64.4749627696847, -24.004340661679397]}}, {"type": "Feature", "properties": {"norad_id": 33682, "name": "FENGYUN 1C DEB", "group": "fengyun-1c-debris", "lat": 18.785893379465968, "lon": 36.227734784442916, "alt_km": 789.0695161202975, "timestamp": "2025-12-18T10:51:26.094636+00:00", "meta": {"OBJECT_NAME": "FENGYUN 1C DEB", "OBJECT_ID": "1999-025DFT", "EPOCH": "2025-12-17T09:31:18.131232", "MEAN_MOTION": 14.26710697, "ECCENTRICITY": 0.00282831, "INCLINATION": 99.4216, "RA_OF_ASC_NODE": 38.3301, "ARG_OF_PERICENTER": 69.3704, "MEAN_ANOMALY": 291.0503, "EPHEMERIS_TYPE": 0, "CLASSIFICATION_TYPE": "U", "NORAD_CAT_ID": 33682, "ELEMENT_SET_NO": 999, "REV_AT_EPOCH": 91764, "BSTAR": 0.0011185678, "MEAN_MOTION_DOT": 2.668e-05, "MEAN_MOTION_DDOT": 0}, "tle": {"line1": "1 33682U 99025DFT 25351.39673763  .00002668  00000+0  11186-2 0  9997", "line2": "2 33682  99.4216  38.3301 0028283  69.3704 291.0503 14.26710697917645"}}, "geometry": {"type": "Point", "coordinates": [36.227734784442916, 18.785893379465968]}}, {"type": "Feature", "properties": {"norad_id": 33684, "name": "FENGYUN 1C DEB", "group": "fengyun-1c-debris", "lat": -54.29368124462957, "lon": -144.1266070616057, "alt_km": 643.2866617992704, "timestamp": "2025-12-18T10:51:26.094647+00:00", "meta": {"OBJECT_NAME": "FENGYUN 1C DEB", "OBJECT_ID": "1999-025DFV", "EPOCH": "2025-12-16T02:20:54.296160", "MEAN_MOTION": 14.73183419, "ECCENTRICITY": 0.028705, "INCLINATION": 99.0658, "RA_OF_ASC_NODE": 46.0777, "ARG_OF_PERICENTER": 330.0778, "MEAN_ANOMALY": 28.4279, "EPHEMERIS_TYPE": 0, "CLASSIFICATION_TYPE": "U", "NORAD_CAT_ID": 33684, "ELEMENT_SET_NO": 999, "REV_AT_EPOCH": 93038, "BSTAR": 0.00063530626, "MEAN_MOTION_DOT": 7.879e-05, "MEAN_MOTION_DDOT": 0}, "tle": {"line1": "1 33684U 99025DFV 25350.09785065  .00007879  00000+0  63531-3 0  9995", "line2": "2 33684  99.0658  46.0777 0287050 330.0778  28.4279 14.73183419930380"}}, "geometry": {"type": "Point", "coordinates": [-144.1266070616057, -54.29368124462957]}}, {"type": "Feature", "properties": {"norad_id": 33687, "name": "FENGYUN 1C DEB", "group": "fengyun-1c-debris", "lat": -64.5793541124107, "lon": 159.79361846078373, "alt_km": 489.57420879726396, "timestamp": "2025-12-18T10:51:26.094657+00:00", "meta": {"OBJECT_NAME": "FENGYUN 1C DEB", "OBJECT_ID": "1999-025DFY", "EPOCH": "2025-12-16T18:14:40.406496", "MEAN_MOTION": 15.18952421, "ECCENTRICITY": 0.01143186, "INCLINATION": 98.9961, "RA_OF_ASC_NODE": 357.2522, "ARG_OF_PERICENTER": 322.8022, "MEAN_ANOMALY": 36.5326, "EPHEMERIS_TYPE": 0, "CLASSIFICATION_TYPE": "U", "NORAD_CAT_ID": 33687, "ELEMENT_SET_NO": 999, "REV_AT_EPOCH": 71569, "BSTAR": 0.0012331719, "MEAN_MOTION_DOT": 0.00030657, "MEAN_MOTION_DDOT": 0}, "tle": {"line1": "1 33687U 99025DFY 25350.76018989  .00030657  00000+0  12332-2 0  9998", "line2": "2 33687  98.9961 357.2522 0114318 322.8022  36.5326 15.18952421715695"}}, "geometry": {"type": "Point", "coordinates": [159.79361846078373, -64.5793541124107]}}, {"type": "Feature", "properties": {"norad_id": 33688, "name": "FENGYUN 1C DEB", "group": "fengyun-1c-debris", "lat": -28.366492143059272, "lon": 99.51793320621947, "alt_km": 742.0622409520583, "timestamp": "2025-12-18T10:51:26.094667+00:00", "meta": {"OBJECT_NAME": "FENGYUN 1C DEB", "OBJECT_ID": "1999-025DFZ", "EPOCH": "2025-12-16T05:50:11.318784", "MEAN_MOTION": 14.45667107, "ECCENTRICITY": 0.00540402, "INCLINATION": 99.3499, "RA_OF_ASC_NODE": 91.9821, "ARG_OF_PERICENTER": 252.6682, "MEAN_ANOMALY": 106.8591, "EPHEMERIS_TYPE": 0, "CLASSIFICATION_TYPE": "U", "NORAD_CAT_ID": 33688, "ELEMENT_SET_NO": 999, "REV_AT_EPOCH": 91532, "BSTAR": 0.0020438807, "MEAN_MOTION_DOT": 7.315e-05, "MEAN_MOTION_DDOT": 0}, "tle": {"line1": "1 33688U 99025DFZ 25350.24318656  .00007315  00000+0  20439-2 0  9998", "line2": "2 33688  99.3499  91.9821 0054040 252.6682 106.8591 14.45667107915328"}}, "geometry": {"type": "Point", "coordinates": [99.51793320621947, -28.366492143059272]}}, {"type": "Feature", "properties": {"norad_id": 33689, "name": "FENGYUN 1C DEB", "group": "fengyun-1c-debris", "lat": -4.155314329910888, "lon": 1.1904820457119474, "alt_km": 770.8140279921527, "timestamp": "2025-12-18T10:51:26.094677+00:00", "meta": {"OBJECT_NAME": "FENGYUN 1C DEB", "OBJECT_ID": "1999-025DGA", "EPOCH": "2025-12-17T19:05:05.195328", "MEAN_MOTION": 14.45178075, "ECCENTRICITY": 0.00483544, "INCLINATION": 99.565, "RA_OF_ASC_NODE": 359.7492, "ARG_OF_PERICENTER": 136.8857, "MEAN_ANOMALY": 42.1948, "EPHEMERIS_TYPE": 0, "CLASSIFICATION_TYPE": "U", "NORAD_CAT_ID": 33689, "ELEMENT_SET_NO": 999, "REV_AT_EPOCH": 69603, "BSTAR": 0.00077368921, "MEAN_MOTION_DOT": 2.694e-05, "MEAN_MOTION_DDOT": 0}, "tle": {"line1": "1 33689U 99025DGA 25351.79519902  .00002694  00000+0  77369-3 0  9997", "line2": "2 33689  99.5650 359.7492 0048354 136.8857  42.1948 14.45178075696030"}}, "geometry": {"type": "Point", "coordinates": [1.1904820457119474, -4.155314329910888]}}, {"type": "Feature", "properties": {"norad_id": 33690, "name": "FENGYUN 1C DEB", "group": "fengyun-1c-debris", "lat": 54.646424138334226, "lon": -76.70508267142917, "alt_km": 716.3057168779678, "timestamp": "2025-12-18T10:51:26.094687+00:00", "meta": {"OBJECT_NAME": "FENGYUN 1C DEB", "OBJECT_ID": "1999-025DGB", "EPOCH": "2025-12-16T05:20:53.420928", "MEAN_MOTION": 14.51511082, "ECCENTRICITY": 0.00301791, "INCLINATION": 98.6135, "RA_OF_ASC_NODE": 88.6744, "ARG_OF_PERICENTER": 38.6259, "MEAN_ANOMALY": 321.7086, "EPHEMERIS_TYPE": 0, "CLASSIFICATION_TYPE": "U", "NORAD_CAT_ID": 33690, "ELEMENT_SET_NO": 999, "REV_AT_EPOCH": 93270, "BSTAR": 0.0014564054, "MEAN_MOTION_DOT": 5.813e-05, "MEAN_MOTION_DDOT": 0}, "tle": {"line1": "1 33690U 99025DGB 25350.22284052  .00005813  00000+0  14564-2 0  9994", "line2": "2 33690  98.6135  88.6744 0030179  38.6259 321.7086 14.51511082932701"}}, "geometry": {"type": "Point", "coordinates": [-76.70508267142917, 54.646424138334226]}}]}